[{"OBJECT_NAME":"OBJECT F","OBJECT_ID":"2023-072F","EPOCH":"2026-03-09T23:31:37.259904","MEAN_MOTION":15.29470958,"ECCENTRICITY":0.00062878,"INCLINATION":97.5173,"RA_OF_ASC_NODE":265.798,"ARG_OF_PERICENTER":19.0017,"MEAN_ANOMALY":341.1456,"EPHEMERIS_TYPE":0,"CLASSIFICATION_TYPE":"U","NORAD_CAT_ID":56748,"ELEMENT_SET_NO":999,"REV_AT_EPOCH":15460,"BSTAR":0.00043416252,"MEAN_MOTION_DOT":0.00012341,"MEAN_MOTION_DDOT":0},{"OBJECT_NAME":"STARLINK-31330","OBJECT_ID":"2024-027W","EPOCH":"2026-03-09T22:10:48.759744","MEAN_MOTION":15.30186191,"ECCENTRICITY":0.00011314,"INCLINATION":53.1607,"RA_OF_ASC_NODE":305.7526,"ARG_OF_PERICENTER":84.7724,"MEAN_ANOMALY":275.3406,"EPHEMERIS_TYPE":0,"CLASSIFICATION_TYPE":"U","NORAD_CAT_ID":58951,"ELEMENT_SET_NO":999,"REV_AT_EPOCH":11740,"BSTAR":4.6377279e-5,"MEAN_MOTION_DOT":1.014e-5,"MEAN_MOTION_DDOT":0}]
